IRIDIUM 171             
1 43929U 19002H   25253.31980184 -.00000051  00000+0 -25231-4 0  9994
2 43929  86.3945 110.8731 0002409  82.5038 277.6432 14.34216334348845
IRIDIUM 170             
1 43930U 19002J   25253.34213064  .00000827  00000+0  12723-3 0  9995
2 43930  86.6060 110.5998 0002462  86.1722 273.9777 14.72251478358087
IRIDIUM 167             
1 43931U 19002K   25253.31346117  .00000215  00000+0  69860-4 0  9995
2 43931  86.3937 110.6204 0002572  86.5680 273.5810 14.34217992348846
IRIDIUM 181             
1 56726U 23068S   25253.29303409  .00000402  00000+0  11330-3 0  9998
2 56726  86.4582 173.7241 0002508  71.3561 288.7912 14.43309887122069
IRIDIUM 177             
1 56727U 23068T   25253.31673120  .00001085  00000+0  13933-3 0  9991
2 56727  86.1926 101.7194 0002522  82.2841 277.8666 14.80226043124964
IRIDIUM 174             
1 56728U 23068U   25253.32975327  .00000922  00000+0  14228-3 0  9994
2 56728  86.6072 110.7243 0001993  95.2940 264.8505 14.72243061124847
IRIDIUM 178             
1 56729U 23068V   25253.44105268  .00001109  00000+0  14253-3 0  9993
2 56729  86.6582 142.2793 0002518  88.3519 271.7991 14.80219881124986
IRIDIUM 179             
1 56730U 23068W   25253.43568871  .00001199  00000+0  15437-3 0  9991
2 56730  86.6841 150.4108 0002914  86.6134 273.5421 14.80222134124984
